{"type": "FeatureCollection", "features": [ {"type": "Feature", "properties": {"norad_id": 29906, "name": "FENGYUN 1C DEB", "group": "fengyun-1c-debris", "lat": 10.429445851647403, "lon": 92.51336027540376, "alt_km": 743.8260156274755, "timestamp": "2025-12-16T15:45:51.318027+00:00", "meta": {"OBJECT_NAME": "FENGYUN 1C DEB", "OBJECT_ID": "1999-025HC", "EPOCH": "2025-12-15T19:50:15.952128", "MEAN_MOTION": 14.49698496, "ECCENTRICITY": 0.00369494, "INCLINATION": 98.7051, "RA_OF_ASC_NODE": 93.2724, "ARG_OF_PERICENTER": 140.1363, "MEAN_ANOMALY": 220.2554, "EPHEMERIS_TYPE": 0, "CLASSIFICATION_TYPE": "U", "NORAD_CAT_ID": 29906, "ELEMENT_SET_NO": 999, "REV_AT_EPOCH": 98202, "BSTAR": 0.001491838, "MEAN_MOTION_DOT": 5.746e-05, "MEAN_MOTION_DDOT": 0}, "tle": {"line1": "1 29906U 99025HC  25349.82657352  .00005746  00000+0  14918-2 0  9998", "line2": "2 29906  98.7051  93.2724 0036949 140.1363 220.2554 14.49698496982025"}}, "geometry": {"type": "Point", "coordinates": [92.51336027540376, 10.429445851647403]}}, {"type": "Feature", "properties": {"norad_id": 29907, "name": "FENGYUN 1C DEB", "group": "fengyun-1c-debris", "lat": -17.634884281343464, "lon": 60.316112828480485, "alt_km": 872.5540041091836, "timestamp": "2025-12-16T15:45:51.318037+00:00", "meta": {"OBJECT_NAME": "FENGYUN 1C DEB", "OBJECT_ID": "1999-025HD", "EPOCH": "2025-12-15T18:17:45.476160", "MEAN_MOTION": 14.11651313, "ECCENTRICITY": 0.00841402, "INCLINATION": 99.112, "RA_OF_ASC_NODE": 56.4836, "ARG_OF_PERICENTER": 241.0241, "MEAN_ANOMALY": 236.9287, "EPHEMERIS_TYPE": 0, "CLASSIFICATION_TYPE": "U", "NORAD_CAT_ID": 29907, "ELEMENT_SET_NO": 999, "REV_AT_EPOCH": 96641, "BSTAR": 0.0011069457, "MEAN_MOTION_DOT": 2.035e-05, "MEAN_MOTION_DDOT": 0}, "tle": {"line1": "1 29907U 99025HD  25349.76233190  .00002035  00000+0  11069-2 0  9994", "line2": "2 29907  99.1120  56.4836 0084140 241.0241 236.9287 14.11651313966413"}}, "geometry": {"type": "Point", "coordinates": [60.316112828480485, -17.634884281343464]}}, {"type": "Feature", "properties": {"norad_id": 29909, "name": "FENGYUN 1C DEB", "group": "fengyun-1c-debris", "lat": 15.46817743327263, "lon": -83.00124555717767, "alt_km": 735.0945367110417, "timestamp": "2025-12-16T15:45:51.318048+00:00", "meta": {"OBJECT_NAME": "FENGYUN 1C DEB", "OBJECT_ID": "1999-025HF", "EPOCH": "2025-12-15T19:46:15.559680", "MEAN_MOTION": 14.55179091, "ECCENTRICITY": 0.00381584, "INCLINATION": 98.6346, "RA_OF_ASC_NODE": 93.7283, "ARG_OF_PERICENTER": 5.5915, "MEAN_ANOMALY": 116.9705, "EPHEMERIS_TYPE": 0, "CLASSIFICATION_TYPE": "U", "NORAD_CAT_ID": 29909, "ELEMENT_SET_NO": 999, "REV_AT_EPOCH": 98450, "BSTAR": 0.0012351159, "MEAN_MOTION_DOT": 5.344e-05, "MEAN_MOTION_DDOT": 0}, "tle": {"line1": "1 29909U 99025HF  25349.82379120  .00005344  00000+0  12351-2 0  9998", "line2": "2 29909  98.6346  93.7283 0038158   5.5915 116.9705 14.55179091984506"}}, "geometry": {"type": "Point", "coordinates": [-83.00124555717767, 15.46817743327263]}}, {"type": "Feature", "properties": {"norad_id": 29911, "name": "FENGYUN 1C DEB", "group": "fengyun-1c-debris", "lat": 21.083734986753427, "lon": -142.90666955154714, "alt_km": 810.232029241477, "timestamp": "2025-12-16T15:45:51.318058+00:00", "meta": {"OBJECT_NAME": "FENGYUN 1C DEB", "OBJECT_ID": "1999-025HH", "EPOCH": "2025-12-15T21:14:56.151168", "MEAN_MOTION": 14.1886478, "ECCENTRICITY": 0.00274717, "INCLINATION": 98.7157, "RA_OF_ASC_NODE": 32.9445, "ARG_OF_PERICENTER": 142.2454, "MEAN_ANOMALY": 37.8105, "EPHEMERIS_TYPE": 0, "CLASSIFICATION_TYPE": "U", "NORAD_CAT_ID": 29911, "ELEMENT_SET_NO": 999, "REV_AT_EPOCH": 97475, "BSTAR": 0.0006249698, "MEAN_MOTION_DOT": 1.262e-05, "MEAN_MOTION_DDOT": 0}, "tle": {"line1": "1 29911U 99025HH  25349.88537212  .00001262  00000+0  62497-3 0  9997", "line2": "2 29911  98.7157  32.9445 0027471 142.2454  37.8105 14.18864780974754"}}, "geometry": {"type": "Point", "coordinates": [-142.90666955154714, 21.083734986753427]}}, {"type": "Feature", "properties": {"norad_id": 29912, "name": "FENGYUN 1C DEB", "group": "fengyun-1c-debris", "lat": 79.50926113417835, "lon": -35.63043892256181, "alt_km": 752.3430298872217, "timestamp": "2025-12-16T15:45:51.318069+00:00", "meta": {"OBJECT_NAME": "FENGYUN 1C DEB", "OBJECT_ID": "1999-025HJ", "EPOCH": "2025-12-15T19:55:12.453600", "MEAN_MOTION": 14.43027574, "ECCENTRICITY": 0.00431258, "INCLINATION": 98.7388, "RA_OF_ASC_NODE": 87.3555, "ARG_OF_PERICENTER": 209.9754, "MEAN_ANOMALY": 273.4072, "EPHEMERIS_TYPE": 0, "CLASSIFICATION_TYPE": "U", "NORAD_CAT_ID": 29912, "ELEMENT_SET_NO": 999, "REV_AT_EPOCH": 98083, "BSTAR": 0.0013922731, "MEAN_MOTION_DOT": 4.673e-05, "MEAN_MOTION_DDOT": 0}, "tle": {"line1": "1 29912U 99025HJ  25349.83000525  .00004673  00000+0  13923-2 0  9993", "line2": "2 29912  98.7388  87.3555 0043125 209.9754 273.4072 14.43027574980832"}}, "geometry": {"type": "Point", "coordinates": [-35.63043892256181, 79.50926113417835]}}, {"type": "Feature", "properties": {"norad_id": 29913, "name": "FENGYUN 1C DEB", "group": "fengyun-1c-debris", "lat": 63.084767111136365, "lon": -28.339445387563018, "alt_km": 905.2689815360072, "timestamp": "2025-12-16T15:45:51.318079+00:00", "meta": {"OBJECT_NAME": "FENGYUN 1C DEB", "OBJECT_ID": "1999-025HK", "EPOCH": "2025-12-15T22:41:01.963968", "MEAN_MOTION": 14.0738612, "ECCENTRICITY": 0.0061868, "INCLINATION": 98.7877, "RA_OF_ASC_NODE": 348.7087, "ARG_OF_PERICENTER": 262.2845, "MEAN_ANOMALY": 158.2265, "EPHEMERIS_TYPE": 0, "CLASSIFICATION_TYPE": "U", "NORAD_CAT_ID": 29913, "ELEMENT_SET_NO": 999, "REV_AT_EPOCH": 97010, "BSTAR": 0.00042014534, "MEAN_MOTION_DOT": 6.75e-06, "MEAN_MOTION_DDOT": 0}, "tle": {"line1": "1 29913U 99025HK  25349.94516162  .00000675  00000+0  42015-3 0  9998", "line2": "2 29913  98.7877 348.7087 0061868 262.2845 158.2265 14.07386120970105"}}, "geometry": {"type": "Point", "coordinates": [-28.339445387563018, 63.084767111136365]}}, {"type": "Feature", "properties": {"norad_id": 29914, "name": "FENGYUN 1C DEB", "group": "fengyun-1c-debris", "lat": 34.37981305384671, "lon": -154.76153599013313, "alt_km": 860.461035182876, "timestamp": "2025-12-16T15:45:51.318089+00:00", "meta": {"OBJECT_NAME": "FENGYUN 1C DEB", "OBJECT_ID": "1999-025HL", "EPOCH": "2025-12-15T21:05:52.975968", "MEAN_MOTION": 14.03132982, "ECCENTRICITY": 0.00367003, "INCLINATION": 98.8442, "RA_OF_ASC_NODE": 18.3676, "ARG_OF_PERICENTER": 106.3739, "MEAN_ANOMALY": 71.9024, "EPHEMERIS_TYPE": 0, "CLASSIFICATION_TYPE": "U", "NORAD_CAT_ID": 29914, "ELEMENT_SET_NO": 999, "REV_AT_EPOCH": 96830, "BSTAR": 4.276936e-06, "MEAN_MOTION_DOT": -3.6e-07, "MEAN_MOTION_DDOT": 0}, "tle": {"line1": "1 29914U 99025HL  25349.87908537 -.00000036  00000+0  42769-5 0  9992", "line2": "2 29914  98.8442  18.3676 0036700 106.3739  71.9024 14.03132982968300"}}, "geometry": {"type": "Point", "coordinates": [-154.76153599013313, 34.37981305384671]}}, {"type": "Feature", "properties": {"norad_id": 29916, "name": "FENGYUN 1C DEB", "group": "fengyun-1c-debris", "lat": -33.36993837001267, "lon": -176.4725585487782, "alt_km": 885.3801313533186, "timestamp": "2025-12-16T15:45:51.318099+00:00", "meta": {"OBJECT_NAME": "FENGYUN 1C DEB", "OBJECT_ID": "1999-025HN", "EPOCH": "2025-12-15T12:56:07.435680", "MEAN_MOTION": 13.56987748, "ECCENTRICITY": 0.02712929, "INCLINATION": 99.1947, "RA_OF_ASC_NODE": 8.6054, "ARG_OF_PERICENTER": 251.3463, "MEAN_ANOMALY": 266.0483, "EPHEMERIS_TYPE": 0, "CLASSIFICATION_TYPE": "U", "NORAD_CAT_ID": 29916, "ELEMENT_SET_NO": 999, "REV_AT_EPOCH": 93490, "BSTAR": 0.00071104375, "MEAN_MOTION_DOT": 5.99e-06, "MEAN_MOTION_DDOT": 0}, "tle": {"line1": "1 29916U 99025HN  25349.53897495  .00000599  00000+0  71104-3 0  9993", "line2": "2 29916  99.1947   8.6054 0271292 251.3463 266.0483 13.56987748934900"}}, "geometry": {"type": "Point", "coordinates": [-176.4725585487782, -33.36993837001267]}}, {"type": "Feature", "properties": {"norad_id": 29917, "name": "FENGYUN 1C DEB", "group": "fengyun-1c-debris", "lat": 43.1424314512623, "lon": 40.419004794230794, "alt_km": 841.5197892025362, "timestamp": "2025-12-16T15:45:51.318109+00:00", "meta": {"OBJECT_NAME": "FENGYUN 1C DEB", "OBJECT_ID": "1999-025HP", "EPOCH": "2025-12-15T21:40:19.375392", "MEAN_MOTION": 13.70418222, "ECCENTRICITY": 0.02229877, "INCLINATION": 98.8767, "RA_OF_ASC_NODE": 211.3009, "ARG_OF_PERICENTER": 115.959, "MEAN_ANOMALY": 262.1211, "EPHEMERIS_TYPE": 0, "CLASSIFICATION_TYPE": "U", "NORAD_CAT_ID": 29917, "ELEMENT_SET_NO": 999, "REV_AT_EPOCH": 94174, "BSTAR": 0.0011436121, "MEAN_MOTION_DOT": 1.168e-05, "MEAN_MOTION_DDOT": 0}, "tle": {"line1": "1 29917U 99025HP  25349.90300203  .00001168  00000+0  11436-2 0  9995", "line2": "2 29917  98.8767 211.3009 0222987 115.9590 262.1211 13.70418222941741"}}, "geometry": {"type": "Point", "coordinates": [40.419004794230794, 43.1424314512623]}}, {"type": "Feature", "properties": {"norad_id": 29918, "name": "FENGYUN 1C DEB", "group": "fengyun-1c-debris", "lat": 45.84994018392525, "lon": -97.57562182174348, "alt_km": 784.782954601661, "timestamp": "2025-12-16T15:45:51.318119+00:00", "meta": {"OBJECT_NAME": "FENGYUN 1C DEB", "OBJECT_ID": "1999-025HQ", "EPOCH": "2025-12-15T19:34:38.914752", "MEAN_MOTION": 14.33624889, "ECCENTRICITY": 0.00130003, "INCLINATION": 98.8549, "RA_OF_ASC_NODE": 72.3232, "ARG_OF_PERICENTER": 306.3656, "MEAN_ANOMALY": 168.4352, "EPHEMERIS_TYPE": 0, "CLASSIFICATION_TYPE": "U", "NORAD_CAT_ID": 29918, "ELEMENT_SET_NO": 999, "REV_AT_EPOCH": 97838, "BSTAR": 0.0010558169, "MEAN_MOTION_DOT": 2.883e-05, "MEAN_MOTION_DDOT": 0}, "tle": {"line1": "1 29918U 99025HQ  25349.81572818  .00002883  00000+0  10558-2 0  9998", "line2": "2 29918  98.8549  72.3232 0013000 306.3656 168.4352 14.33624889978388"}}, "geometry": {"type": "Point", "coordinates": [-97.57562182174348, 45.84994018392525]}}]}